<?xml version="1.0" encoding="UTF-8"?>
<gpx version="1.1" creator="GPXami"
  xmlns="http://www.topografix.com/GPX/1/1"
  xmlns:xsi="http://www.w3.org/2001/XMLSchema-instance"
  xsi:schemaLocation="http://www.topografix.com/GPX/1/1 http://www.topografix.com/GPX/1/1/gpx.xsd">

  <metadata>
    <name>板橋-信義區步行路線</name>
    <desc>Walking route: 板橋區府中路126號 → 松仁路101號 → 涵光整合醫學診所</desc>
    <time>2026-09-19T01:00:00Z</time>
  </metadata>

  <wpt lat="25.0095883" lon="121.4552126">
    <time>2026-09-19T01:00:00Z</time>
    <name>新北市板橋區府中路126號</name>
    <desc>起點</desc>
  </wpt>

  <wpt lat="25.0362042" lon="121.5686003">
    <time>2026-09-19T08:03:38Z</time>
    <name>臺北市信義區松仁路101號</name>
    <desc>中途點</desc>
  </wpt>

  <wpt lat="25.0251455" lon="121.5685554">
    <time>2026-09-19T09:00:00Z</time>
    <name>涵光整合醫學診所</name>
    <desc>終點</desc>
  </wpt>

  <trk>
    <name>板橋-信義區步行路線</name>
    <type>Walking</type>
    <trkseg>
      <trkpt lat="25.009431" lon="121.455256">
        <time>2026-09-19T01:00:00Z</time>
      </trkpt>
      <trkpt lat="25.009489" lon="121.455516">
        <time>2026-09-19T01:00:47Z</time>
      </trkpt>
      <trkpt lat="25.0091" lon="121.455604">
        <time>2026-09-19T01:02:04Z</time>
      </trkpt>
      <trkpt lat="25.00868" lon="121.455705">
        <time>2026-09-19T01:03:27Z</time>
      </trkpt>
      <trkpt lat="25.008389" lon="121.455717">
        <time>2026-09-19T01:04:24Z</time>
      </trkpt>
      <trkpt lat="25.008243" lon="121.455645">
        <time>2026-09-19T01:04:55Z</time>
      </trkpt>
      <trkpt lat="25.008162" lon="121.455838">
        <time>2026-09-19T01:05:32Z</time>
      </trkpt>
      <trkpt lat="25.008116" lon="121.455944">
        <time>2026-09-19T01:05:53Z</time>
      </trkpt>
      <trkpt lat="25.008074" lon="121.456032">
        <time>2026-09-19T01:06:10Z</time>
      </trkpt>
      <trkpt lat="25.007951" lon="121.456254">
        <time>2026-09-19T01:06:56Z</time>
      </trkpt>
      <trkpt lat="25.007875" lon="121.456353">
        <time>2026-09-19T01:07:19Z</time>
      </trkpt>
      <trkpt lat="25.007618" lon="121.456697">
        <time>2026-09-19T01:08:38Z</time>
      </trkpt>
      <trkpt lat="25.007254" lon="121.457301">
        <time>2026-09-19T01:10:45Z</time>
      </trkpt>
      <trkpt lat="25.007095" lon="121.457574">
        <time>2026-09-19T01:11:42Z</time>
      </trkpt>
      <trkpt lat="25.006946" lon="121.457822">
        <time>2026-09-19T01:12:35Z</time>
      </trkpt>
      <trkpt lat="25.006917" lon="121.457864">
        <time>2026-09-19T01:12:44Z</time>
      </trkpt>
      <trkpt lat="25.006849" lon="121.457982">
        <time>2026-09-19T01:13:09Z</time>
      </trkpt>
      <trkpt lat="25.006958" lon="121.458077">
        <time>2026-09-19T01:13:36Z</time>
      </trkpt>
      <trkpt lat="25.006978" lon="121.458095">
        <time>2026-09-19T01:13:41Z</time>
      </trkpt>
      <trkpt lat="25.00738" lon="121.458466">
        <time>2026-09-19T01:15:22Z</time>
      </trkpt>
      <trkpt lat="25.007977" lon="121.459028">
        <time>2026-09-19T01:17:55Z</time>
      </trkpt>
      <trkpt lat="25.008374" lon="121.459377">
        <time>2026-09-19T01:19:33Z</time>
      </trkpt>
      <trkpt lat="25.008539" lon="121.459523">
        <time>2026-09-19T01:20:14Z</time>
      </trkpt>
      <trkpt lat="25.008723" lon="121.459686">
        <time>2026-09-19T01:21:00Z</time>
      </trkpt>
      <trkpt lat="25.009332" lon="121.460226">
        <time>2026-09-19T01:23:32Z</time>
      </trkpt>
      <trkpt lat="25.00956" lon="121.460412">
        <time>2026-09-19T01:24:27Z</time>
      </trkpt>
      <trkpt lat="25.009978" lon="121.460793">
        <time>2026-09-19T01:26:12Z</time>
      </trkpt>
      <trkpt lat="25.010035" lon="121.460848">
        <time>2026-09-19T01:26:27Z</time>
      </trkpt>
      <trkpt lat="25.010167" lon="121.460976">
        <time>2026-09-19T01:27:01Z</time>
      </trkpt>
      <trkpt lat="25.010239" lon="121.461043">
        <time>2026-09-19T01:27:20Z</time>
      </trkpt>
      <trkpt lat="25.010436" lon="121.461199">
        <time>2026-09-19T01:28:07Z</time>
      </trkpt>
      <trkpt lat="25.011145" lon="121.461852">
        <time>2026-09-19T01:31:06Z</time>
      </trkpt>
      <trkpt lat="25.011151" lon="121.461858">
        <time>2026-09-19T01:31:08Z</time>
      </trkpt>
      <trkpt lat="25.011223" lon="121.461926">
        <time>2026-09-19T01:31:26Z</time>
      </trkpt>
      <trkpt lat="25.011338" lon="121.462029">
        <time>2026-09-19T01:31:55Z</time>
      </trkpt>
      <trkpt lat="25.011452" lon="121.462137">
        <time>2026-09-19T01:32:24Z</time>
      </trkpt>
      <trkpt lat="25.012709" lon="121.463321">
        <time>2026-09-19T01:37:45Z</time>
      </trkpt>
      <trkpt lat="25.012745" lon="121.463355">
        <time>2026-09-19T01:37:54Z</time>
      </trkpt>
      <trkpt lat="25.012811" lon="121.463418">
        <time>2026-09-19T01:38:11Z</time>
      </trkpt>
      <trkpt lat="25.012879" lon="121.463484">
        <time>2026-09-19T01:38:29Z</time>
      </trkpt>
      <trkpt lat="25.012965" lon="121.463594">
        <time>2026-09-19T01:38:54Z</time>
      </trkpt>
      <trkpt lat="25.013008" lon="121.463647">
        <time>2026-09-19T01:39:07Z</time>
      </trkpt>
      <trkpt lat="25.013114" lon="121.463795">
        <time>2026-09-19T01:39:40Z</time>
      </trkpt>
      <trkpt lat="25.014029" lon="121.464881">
        <time>2026-09-19T01:44:01Z</time>
      </trkpt>
      <trkpt lat="25.01441" lon="121.465394">
        <time>2026-09-19T01:45:58Z</time>
      </trkpt>
      <trkpt lat="25.014424" lon="121.465413">
        <time>2026-09-19T01:46:02Z</time>
      </trkpt>
      <trkpt lat="25.014489" lon="121.465513">
        <time>2026-09-19T01:46:24Z</time>
      </trkpt>
      <trkpt lat="25.014517" lon="121.465547">
        <time>2026-09-19T01:46:32Z</time>
      </trkpt>
      <trkpt lat="25.014554" lon="121.465601">
        <time>2026-09-19T01:46:44Z</time>
      </trkpt>
      <trkpt lat="25.01463" lon="121.465713">
        <time>2026-09-19T01:47:08Z</time>
      </trkpt>
      <trkpt lat="25.014653" lon="121.465745">
        <time>2026-09-19T01:47:15Z</time>
      </trkpt>
      <trkpt lat="25.014857" lon="121.466036">
        <time>2026-09-19T01:48:20Z</time>
      </trkpt>
      <trkpt lat="25.014921" lon="121.466117">
        <time>2026-09-19T01:48:39Z</time>
      </trkpt>
      <trkpt lat="25.015308" lon="121.466681">
        <time>2026-09-19T01:50:44Z</time>
      </trkpt>
      <trkpt lat="25.015361" lon="121.466758">
        <time>2026-09-19T01:51:01Z</time>
      </trkpt>
      <trkpt lat="25.015421" lon="121.466854">
        <time>2026-09-19T01:51:21Z</time>
      </trkpt>
      <trkpt lat="25.015485" lon="121.466951">
        <time>2026-09-19T01:51:42Z</time>
      </trkpt>
      <trkpt lat="25.015505" lon="121.466982">
        <time>2026-09-19T01:51:49Z</time>
      </trkpt>
      <trkpt lat="25.016152" lon="121.467947">
        <time>2026-09-19T01:55:20Z</time>
      </trkpt>
      <trkpt lat="25.016648" lon="121.468623">
        <time>2026-09-19T01:57:53Z</time>
      </trkpt>
      <trkpt lat="25.017016" lon="121.469124">
        <time>2026-09-19T01:59:47Z</time>
      </trkpt>
      <trkpt lat="25.017054" lon="121.469176">
        <time>2026-09-19T01:59:59Z</time>
      </trkpt>
      <trkpt lat="25.017096" lon="121.469233">
        <time>2026-09-19T02:00:11Z</time>
      </trkpt>
      <trkpt lat="25.017264" lon="121.469474">
        <time>2026-09-19T02:01:05Z</time>
      </trkpt>
      <trkpt lat="25.01755" lon="121.469883">
        <time>2026-09-19T02:02:36Z</time>
      </trkpt>
      <trkpt lat="25.018317" lon="121.470995">
        <time>2026-09-19T02:06:42Z</time>
      </trkpt>
      <trkpt lat="25.018481" lon="121.47121">
        <time>2026-09-19T02:07:31Z</time>
      </trkpt>
      <trkpt lat="25.018627" lon="121.471435">
        <time>2026-09-19T02:08:20Z</time>
      </trkpt>
      <trkpt lat="25.018704" lon="121.471516">
        <time>2026-09-19T02:08:41Z</time>
      </trkpt>
      <trkpt lat="25.018728" lon="121.471541">
        <time>2026-09-19T02:08:47Z</time>
      </trkpt>
      <trkpt lat="25.019063" lon="121.471974">
        <time>2026-09-19T02:10:27Z</time>
      </trkpt>
      <trkpt lat="25.021446" lon="121.475354">
        <time>2026-09-19T02:23:01Z</time>
      </trkpt>
      <trkpt lat="25.022766" lon="121.47718">
        <time>2026-09-19T02:29:52Z</time>
      </trkpt>
      <trkpt lat="25.023335" lon="121.477938">
        <time>2026-09-19T02:32:45Z</time>
      </trkpt>
      <trkpt lat="25.023647" lon="121.478367">
        <time>2026-09-19T02:34:22Z</time>
      </trkpt>
      <trkpt lat="25.024115" lon="121.479102">
        <time>2026-09-19T02:37:00Z</time>
      </trkpt>
      <trkpt lat="25.024807" lon="121.480059">
        <time>2026-09-19T02:40:36Z</time>
      </trkpt>
      <trkpt lat="25.025318" lon="121.480777">
        <time>2026-09-19T02:43:16Z</time>
      </trkpt>
      <trkpt lat="25.025474" lon="121.48099">
        <time>2026-09-19T02:44:05Z</time>
      </trkpt>
      <trkpt lat="25.025619" lon="121.481224">
        <time>2026-09-19T02:44:54Z</time>
      </trkpt>
      <trkpt lat="25.025868" lon="121.481638">
        <time>2026-09-19T02:46:22Z</time>
      </trkpt>
      <trkpt lat="25.026173" lon="121.482185">
        <time>2026-09-19T02:48:15Z</time>
      </trkpt>
      <trkpt lat="25.0265" lon="121.482883">
        <time>2026-09-19T02:50:33Z</time>
      </trkpt>
      <trkpt lat="25.02675" lon="121.483705">
        <time>2026-09-19T02:53:06Z</time>
      </trkpt>
      <trkpt lat="25.026877" lon="121.484283">
        <time>2026-09-19T02:54:50Z</time>
      </trkpt>
      <trkpt lat="25.027073" lon="121.485442">
        <time>2026-09-19T02:58:18Z</time>
      </trkpt>
      <trkpt lat="25.027293" lon="121.486822">
        <time>2026-09-19T03:02:25Z</time>
      </trkpt>
      <trkpt lat="25.027451" lon="121.487929">
        <time>2026-09-19T03:05:42Z</time>
      </trkpt>
      <trkpt lat="25.027602" lon="121.488987">
        <time>2026-09-19T03:08:50Z</time>
      </trkpt>
      <trkpt lat="25.027692" lon="121.489471">
        <time>2026-09-19T03:10:17Z</time>
      </trkpt>
      <trkpt lat="25.027826" lon="121.489938">
        <time>2026-09-19T03:11:43Z</time>
      </trkpt>
      <trkpt lat="25.028008" lon="121.490373">
        <time>2026-09-19T03:13:08Z</time>
      </trkpt>
      <trkpt lat="25.028154" lon="121.490663">
        <time>2026-09-19T03:14:06Z</time>
      </trkpt>
      <trkpt lat="25.028335" lon="121.490969">
        <time>2026-09-19T03:15:10Z</time>
      </trkpt>
      <trkpt lat="25.028544" lon="121.491277">
        <time>2026-09-19T03:16:18Z</time>
      </trkpt>
      <trkpt lat="25.028989" lon="121.491807">
        <time>2026-09-19T03:18:25Z</time>
      </trkpt>
      <trkpt lat="25.029713" lon="121.492645">
        <time>2026-09-19T03:21:49Z</time>
      </trkpt>
      <trkpt lat="25.02988" lon="121.492839">
        <time>2026-09-19T03:22:36Z</time>
      </trkpt>
      <trkpt lat="25.030124" lon="121.493122">
        <time>2026-09-19T03:23:45Z</time>
      </trkpt>
      <trkpt lat="25.030364" lon="121.493384">
        <time>2026-09-19T03:24:50Z</time>
      </trkpt>
      <trkpt lat="25.030419" lon="121.493447">
        <time>2026-09-19T03:25:06Z</time>
      </trkpt>
      <trkpt lat="25.030479" lon="121.493508">
        <time>2026-09-19T03:25:22Z</time>
      </trkpt>
      <trkpt lat="25.030531" lon="121.493565">
        <time>2026-09-19T03:25:36Z</time>
      </trkpt>
      <trkpt lat="25.030847" lon="121.493914">
        <time>2026-09-19T03:27:03Z</time>
      </trkpt>
      <trkpt lat="25.030957" lon="121.494035">
        <time>2026-09-19T03:27:33Z</time>
      </trkpt>
      <trkpt lat="25.031076" lon="121.49416">
        <time>2026-09-19T03:28:05Z</time>
      </trkpt>
      <trkpt lat="25.031315" lon="121.494428">
        <time>2026-09-19T03:29:11Z</time>
      </trkpt>
      <trkpt lat="25.031618" lon="121.494759">
        <time>2026-09-19T03:30:34Z</time>
      </trkpt>
      <trkpt lat="25.031712" lon="121.494862">
        <time>2026-09-19T03:30:59Z</time>
      </trkpt>
      <trkpt lat="25.03179" lon="121.494954">
        <time>2026-09-19T03:31:22Z</time>
      </trkpt>
      <trkpt lat="25.032233" lon="121.495443">
        <time>2026-09-19T03:33:23Z</time>
      </trkpt>
      <trkpt lat="25.032547" lon="121.495859">
        <time>2026-09-19T03:34:59Z</time>
      </trkpt>
      <trkpt lat="25.032575" lon="121.495909">
        <time>2026-09-19T03:35:09Z</time>
      </trkpt>
      <trkpt lat="25.032658" lon="121.496032">
        <time>2026-09-19T03:35:36Z</time>
      </trkpt>
      <trkpt lat="25.032672" lon="121.496073">
        <time>2026-09-19T03:35:44Z</time>
      </trkpt>
      <trkpt lat="25.032767" lon="121.496267">
        <time>2026-09-19T03:36:22Z</time>
      </trkpt>
      <trkpt lat="25.032782" lon="121.496304">
        <time>2026-09-19T03:36:30Z</time>
      </trkpt>
      <trkpt lat="25.032956" lon="121.496781">
        <time>2026-09-19T03:38:00Z</time>
      </trkpt>
      <trkpt lat="25.033008" lon="121.497019">
        <time>2026-09-19T03:38:43Z</time>
      </trkpt>
      <trkpt lat="25.033029" lon="121.497118">
        <time>2026-09-19T03:39:01Z</time>
      </trkpt>
      <trkpt lat="25.033048" lon="121.497197">
        <time>2026-09-19T03:39:15Z</time>
      </trkpt>
      <trkpt lat="25.033097" lon="121.497667">
        <time>2026-09-19T03:40:39Z</time>
      </trkpt>
      <trkpt lat="25.033101" lon="121.497763">
        <time>2026-09-19T03:40:56Z</time>
      </trkpt>
      <trkpt lat="25.033104" lon="121.497847">
        <time>2026-09-19T03:41:10Z</time>
      </trkpt>
      <trkpt lat="25.033102" lon="121.497989">
        <time>2026-09-19T03:41:35Z</time>
      </trkpt>
      <trkpt lat="25.033102" lon="121.498155">
        <time>2026-09-19T03:42:05Z</time>
      </trkpt>
      <trkpt lat="25.033101" lon="121.4982">
        <time>2026-09-19T03:42:13Z</time>
      </trkpt>
      <trkpt lat="25.033062" lon="121.498583">
        <time>2026-09-19T03:43:20Z</time>
      </trkpt>
      <trkpt lat="25.033006" lon="121.498867">
        <time>2026-09-19T03:44:11Z</time>
      </trkpt>
      <trkpt lat="25.032931" lon="121.499271">
        <time>2026-09-19T03:45:24Z</time>
      </trkpt>
      <trkpt lat="25.032922" lon="121.499331">
        <time>2026-09-19T03:45:35Z</time>
      </trkpt>
      <trkpt lat="25.032904" lon="121.499473">
        <time>2026-09-19T03:46:00Z</time>
      </trkpt>
      <trkpt lat="25.032886" lon="121.499796">
        <time>2026-09-19T03:46:57Z</time>
      </trkpt>
      <trkpt lat="25.032915" lon="121.500075">
        <time>2026-09-19T03:47:46Z</time>
      </trkpt>
      <trkpt lat="25.032929" lon="121.500426">
        <time>2026-09-19T03:48:48Z</time>
      </trkpt>
      <trkpt lat="25.032922" lon="121.50053">
        <time>2026-09-19T03:49:07Z</time>
      </trkpt>
      <trkpt lat="25.032921" lon="121.500665">
        <time>2026-09-19T03:49:30Z</time>
      </trkpt>
      <trkpt lat="25.032935" lon="121.500809">
        <time>2026-09-19T03:49:56Z</time>
      </trkpt>
      <trkpt lat="25.032937" lon="121.500862">
        <time>2026-09-19T03:50:05Z</time>
      </trkpt>
      <trkpt lat="25.032951" lon="121.500965">
        <time>2026-09-19T03:50:23Z</time>
      </trkpt>
      <trkpt lat="25.033048" lon="121.501538">
        <time>2026-09-19T03:52:06Z</time>
      </trkpt>
      <trkpt lat="25.03312" lon="121.501854">
        <time>2026-09-19T03:53:03Z</time>
      </trkpt>
      <trkpt lat="25.033202" lon="121.502211">
        <time>2026-09-19T03:54:08Z</time>
      </trkpt>
      <trkpt lat="25.033213" lon="121.502252">
        <time>2026-09-19T03:54:16Z</time>
      </trkpt>
      <trkpt lat="25.033227" lon="121.502317">
        <time>2026-09-19T03:54:27Z</time>
      </trkpt>
      <trkpt lat="25.033408" lon="121.503136">
        <time>2026-09-19T03:56:56Z</time>
      </trkpt>
      <trkpt lat="25.033559" lon="121.503759">
        <time>2026-09-19T03:58:49Z</time>
      </trkpt>
      <trkpt lat="25.03376" lon="121.504544">
        <time>2026-09-19T04:01:13Z</time>
      </trkpt>
      <trkpt lat="25.033767" lon="121.504577">
        <time>2026-09-19T04:01:19Z</time>
      </trkpt>
      <trkpt lat="25.033827" lon="121.504746">
        <time>2026-09-19T04:01:51Z</time>
      </trkpt>
      <trkpt lat="25.033873" lon="121.504836">
        <time>2026-09-19T04:02:09Z</time>
      </trkpt>
      <trkpt lat="25.033926" lon="121.504936">
        <time>2026-09-19T04:02:29Z</time>
      </trkpt>
      <trkpt lat="25.033985" lon="121.505036">
        <time>2026-09-19T04:02:50Z</time>
      </trkpt>
      <trkpt lat="25.034211" lon="121.505403">
        <time>2026-09-19T04:04:08Z</time>
      </trkpt>
      <trkpt lat="25.03433" lon="121.505541">
        <time>2026-09-19T04:04:42Z</time>
      </trkpt>
      <trkpt lat="25.034384" lon="121.505605">
        <time>2026-09-19T04:04:57Z</time>
      </trkpt>
      <trkpt lat="25.034462" lon="121.505699">
        <time>2026-09-19T04:05:20Z</time>
      </trkpt>
      <trkpt lat="25.034544" lon="121.505773">
        <time>2026-09-19T04:05:40Z</time>
      </trkpt>
      <trkpt lat="25.034782" lon="121.505989">
        <time>2026-09-19T04:06:40Z</time>
      </trkpt>
      <trkpt lat="25.034886" lon="121.50607">
        <time>2026-09-19T04:07:05Z</time>
      </trkpt>
      <trkpt lat="25.03518" lon="121.506271">
        <time>2026-09-19T04:08:12Z</time>
      </trkpt>
      <trkpt lat="25.035216" lon="121.506291">
        <time>2026-09-19T04:08:20Z</time>
      </trkpt>
      <trkpt lat="25.035286" lon="121.506324">
        <time>2026-09-19T04:08:35Z</time>
      </trkpt>
      <trkpt lat="25.035321" lon="121.50634">
        <time>2026-09-19T04:08:42Z</time>
      </trkpt>
      <trkpt lat="25.035453" lon="121.506402">
        <time>2026-09-19T04:09:10Z</time>
      </trkpt>
      <trkpt lat="25.03552" lon="121.506433">
        <time>2026-09-19T04:09:24Z</time>
      </trkpt>
      <trkpt lat="25.035741" lon="121.506521">
        <time>2026-09-19T04:10:10Z</time>
      </trkpt>
      <trkpt lat="25.035808" lon="121.506547">
        <time>2026-09-19T04:10:23Z</time>
      </trkpt>
      <trkpt lat="25.035917" lon="121.506583">
        <time>2026-09-19T04:10:45Z</time>
      </trkpt>
      <trkpt lat="25.036031" lon="121.506619">
        <time>2026-09-19T04:11:09Z</time>
      </trkpt>
      <trkpt lat="25.036116" lon="121.506641">
        <time>2026-09-19T04:11:25Z</time>
      </trkpt>
      <trkpt lat="25.036644" lon="121.506762">
        <time>2026-09-19T04:13:10Z</time>
      </trkpt>
      <trkpt lat="25.036841" lon="121.506809">
        <time>2026-09-19T04:13:49Z</time>
      </trkpt>
      <trkpt lat="25.037128" lon="121.506897">
        <time>2026-09-19T04:14:47Z</time>
      </trkpt>
      <trkpt lat="25.037166" lon="121.506912">
        <time>2026-09-19T04:14:55Z</time>
      </trkpt>
      <trkpt lat="25.037236" lon="121.506941">
        <time>2026-09-19T04:15:10Z</time>
      </trkpt>
      <trkpt lat="25.037436" lon="121.507043">
        <time>2026-09-19T04:15:52Z</time>
      </trkpt>
      <trkpt lat="25.03754" lon="121.507046">
        <time>2026-09-19T04:16:13Z</time>
      </trkpt>
      <trkpt lat="25.037604" lon="121.507054">
        <time>2026-09-19T04:16:25Z</time>
      </trkpt>
      <trkpt lat="25.039111" lon="121.50748">
        <time>2026-09-19T04:21:27Z</time>
      </trkpt>
      <trkpt lat="25.039234" lon="121.507514">
        <time>2026-09-19T04:21:52Z</time>
      </trkpt>
      <trkpt lat="25.039355" lon="121.507542">
        <time>2026-09-19T04:22:16Z</time>
      </trkpt>
      <trkpt lat="25.040366" lon="121.507846">
        <time>2026-09-19T04:25:39Z</time>
      </trkpt>
      <trkpt lat="25.040508" lon="121.507882">
        <time>2026-09-19T04:26:08Z</time>
      </trkpt>
      <trkpt lat="25.040637" lon="121.507919">
        <time>2026-09-19T04:26:34Z</time>
      </trkpt>
      <trkpt lat="25.041908" lon="121.50829">
        <time>2026-09-19T04:30:49Z</time>
      </trkpt>
      <trkpt lat="25.041948" lon="121.508302">
        <time>2026-09-19T04:30:57Z</time>
      </trkpt>
      <trkpt lat="25.041998" lon="121.508316">
        <time>2026-09-19T04:31:07Z</time>
      </trkpt>
      <trkpt lat="25.042107" lon="121.508348">
        <time>2026-09-19T04:31:29Z</time>
      </trkpt>
      <trkpt lat="25.042205" lon="121.508377">
        <time>2026-09-19T04:31:49Z</time>
      </trkpt>
      <trkpt lat="25.042323" lon="121.50841">
        <time>2026-09-19T04:32:12Z</time>
      </trkpt>
      <trkpt lat="25.044148" lon="121.508931">
        <time>2026-09-19T04:38:18Z</time>
      </trkpt>
      <trkpt lat="25.044237" lon="121.508957">
        <time>2026-09-19T04:38:36Z</time>
      </trkpt>
      <trkpt lat="25.04435" lon="121.508989">
        <time>2026-09-19T04:38:59Z</time>
      </trkpt>
      <trkpt lat="25.04506" lon="121.509192">
        <time>2026-09-19T04:41:21Z</time>
      </trkpt>
      <trkpt lat="25.045157" lon="121.509219">
        <time>2026-09-19T04:41:41Z</time>
      </trkpt>
      <trkpt lat="25.045277" lon="121.509255">
        <time>2026-09-19T04:42:05Z</time>
      </trkpt>
      <trkpt lat="25.045502" lon="121.509314">
        <time>2026-09-19T04:42:50Z</time>
      </trkpt>
      <trkpt lat="25.045581" lon="121.509335">
        <time>2026-09-19T04:43:06Z</time>
      </trkpt>
      <trkpt lat="25.04592" lon="121.509424">
        <time>2026-09-19T04:44:13Z</time>
      </trkpt>
      <trkpt lat="25.045981" lon="121.509505">
        <time>2026-09-19T04:44:32Z</time>
      </trkpt>
      <trkpt lat="25.046513" lon="121.50968">
        <time>2026-09-19T04:46:20Z</time>
      </trkpt>
      <trkpt lat="25.046674" lon="121.509761">
        <time>2026-09-19T04:46:54Z</time>
      </trkpt>
      <trkpt lat="25.046903" lon="121.509856">
        <time>2026-09-19T04:47:41Z</time>
      </trkpt>
      <trkpt lat="25.046976" lon="121.509884">
        <time>2026-09-19T04:47:56Z</time>
      </trkpt>
      <trkpt lat="25.047024" lon="121.509903">
        <time>2026-09-19T04:48:06Z</time>
      </trkpt>
      <trkpt lat="25.047085" lon="121.50992">
        <time>2026-09-19T04:48:19Z</time>
      </trkpt>
      <trkpt lat="25.04722" lon="121.51005">
        <time>2026-09-19T04:48:53Z</time>
      </trkpt>
      <trkpt lat="25.047615" lon="121.510153">
        <time>2026-09-19T04:50:12Z</time>
      </trkpt>
      <trkpt lat="25.047803" lon="121.510197">
        <time>2026-09-19T04:50:50Z</time>
      </trkpt>
      <trkpt lat="25.048075" lon="121.510245">
        <time>2026-09-19T04:51:43Z</time>
      </trkpt>
      <trkpt lat="25.048074" lon="121.510311">
        <time>2026-09-19T04:51:55Z</time>
      </trkpt>
      <trkpt lat="25.048063" lon="121.510699">
        <time>2026-09-19T04:53:03Z</time>
      </trkpt>
      <trkpt lat="25.048042" lon="121.511084">
        <time>2026-09-19T04:54:11Z</time>
      </trkpt>
      <trkpt lat="25.04802" lon="121.511216">
        <time>2026-09-19T04:54:34Z</time>
      </trkpt>
      <trkpt lat="25.048001" lon="121.5113">
        <time>2026-09-19T04:54:50Z</time>
      </trkpt>
      <trkpt lat="25.047975" lon="121.511378">
        <time>2026-09-19T04:55:04Z</time>
      </trkpt>
      <trkpt lat="25.047908" lon="121.511522">
        <time>2026-09-19T04:55:33Z</time>
      </trkpt>
      <trkpt lat="25.047842" lon="121.511634">
        <time>2026-09-19T04:55:56Z</time>
      </trkpt>
      <trkpt lat="25.047776" lon="121.511726">
        <time>2026-09-19T04:56:17Z</time>
      </trkpt>
      <trkpt lat="25.047702" lon="121.511817">
        <time>2026-09-19T04:56:38Z</time>
      </trkpt>
      <trkpt lat="25.047658" lon="121.511871">
        <time>2026-09-19T04:56:51Z</time>
      </trkpt>
      <trkpt lat="25.047587" lon="121.51198">
        <time>2026-09-19T04:57:15Z</time>
      </trkpt>
      <trkpt lat="25.047516" lon="121.512122">
        <time>2026-09-19T04:57:43Z</time>
      </trkpt>
      <trkpt lat="25.047461" lon="121.512251">
        <time>2026-09-19T04:58:08Z</time>
      </trkpt>
      <trkpt lat="25.047301" lon="121.512803">
        <time>2026-09-19T04:59:50Z</time>
      </trkpt>
      <trkpt lat="25.047233" lon="121.513076">
        <time>2026-09-19T05:00:40Z</time>
      </trkpt>
      <trkpt lat="25.047186" lon="121.513271">
        <time>2026-09-19T05:01:16Z</time>
      </trkpt>
      <trkpt lat="25.047145" lon="121.513446">
        <time>2026-09-19T05:01:48Z</time>
      </trkpt>
      <trkpt lat="25.047095" lon="121.513649">
        <time>2026-09-19T05:02:25Z</time>
      </trkpt>
      <trkpt lat="25.046955" lon="121.51422">
        <time>2026-09-19T05:04:09Z</time>
      </trkpt>
      <trkpt lat="25.046786" lon="121.514905">
        <time>2026-09-19T05:06:14Z</time>
      </trkpt>
      <trkpt lat="25.046759" lon="121.515017">
        <time>2026-09-19T05:06:34Z</time>
      </trkpt>
      <trkpt lat="25.046721" lon="121.51518">
        <time>2026-09-19T05:07:04Z</time>
      </trkpt>
      <trkpt lat="25.046607" lon="121.515636">
        <time>2026-09-19T05:08:27Z</time>
      </trkpt>
      <trkpt lat="25.046486" lon="121.516125">
        <time>2026-09-19T05:09:56Z</time>
      </trkpt>
      <trkpt lat="25.046148" lon="121.517468">
        <time>2026-09-19T05:14:01Z</time>
      </trkpt>
      <trkpt lat="25.046147" lon="121.517479">
        <time>2026-09-19T05:14:03Z</time>
      </trkpt>
      <trkpt lat="25.046017" lon="121.51818">
        <time>2026-09-19T05:16:09Z</time>
      </trkpt>
      <trkpt lat="25.045986" lon="121.518301">
        <time>2026-09-19T05:16:31Z</time>
      </trkpt>
      <trkpt lat="25.045746" lon="121.519295">
        <time>2026-09-19T05:19:32Z</time>
      </trkpt>
      <trkpt lat="25.045672" lon="121.519689">
        <time>2026-09-19T05:20:43Z</time>
      </trkpt>
      <trkpt lat="25.045611" lon="121.52004">
        <time>2026-09-19T05:21:46Z</time>
      </trkpt>
      <trkpt lat="25.045505" lon="121.520461">
        <time>2026-09-19T05:23:03Z</time>
      </trkpt>
      <trkpt lat="25.045429" lon="121.520782">
        <time>2026-09-19T05:24:01Z</time>
      </trkpt>
      <trkpt lat="25.04519" lon="121.521472">
        <time>2026-09-19T05:26:11Z</time>
      </trkpt>
      <trkpt lat="25.045184" lon="121.521496">
        <time>2026-09-19T05:26:16Z</time>
      </trkpt>
      <trkpt lat="25.045174" lon="121.521537">
        <time>2026-09-19T05:26:23Z</time>
      </trkpt>
      <trkpt lat="25.045158" lon="121.521611">
        <time>2026-09-19T05:26:36Z</time>
      </trkpt>
      <trkpt lat="25.045138" lon="121.521695">
        <time>2026-09-19T05:26:52Z</time>
      </trkpt>
      <trkpt lat="25.045082" lon="121.521916">
        <time>2026-09-19T05:27:32Z</time>
      </trkpt>
      <trkpt lat="25.044992" lon="121.52231">
        <time>2026-09-19T05:28:44Z</time>
      </trkpt>
      <trkpt lat="25.044897" lon="121.522723">
        <time>2026-09-19T05:29:59Z</time>
      </trkpt>
      <trkpt lat="25.044802" lon="121.523115">
        <time>2026-09-19T05:31:10Z</time>
      </trkpt>
      <trkpt lat="25.044787" lon="121.523174">
        <time>2026-09-19T05:31:21Z</time>
      </trkpt>
      <trkpt lat="25.044749" lon="121.523329">
        <time>2026-09-19T05:31:49Z</time>
      </trkpt>
      <trkpt lat="25.04471" lon="121.523486">
        <time>2026-09-19T05:32:18Z</time>
      </trkpt>
      <trkpt lat="25.044629" lon="121.523837">
        <time>2026-09-19T05:33:21Z</time>
      </trkpt>
      <trkpt lat="25.044527" lon="121.524256">
        <time>2026-09-19T05:34:38Z</time>
      </trkpt>
      <trkpt lat="25.044376" lon="121.524877">
        <time>2026-09-19T05:36:31Z</time>
      </trkpt>
      <trkpt lat="25.044361" lon="121.524939">
        <time>2026-09-19T05:36:42Z</time>
      </trkpt>
      <trkpt lat="25.044329" lon="121.525087">
        <time>2026-09-19T05:37:09Z</time>
      </trkpt>
      <trkpt lat="25.044301" lon="121.525186">
        <time>2026-09-19T05:37:27Z</time>
      </trkpt>
      <trkpt lat="25.044116" lon="121.525947">
        <time>2026-09-19T05:39:46Z</time>
      </trkpt>
      <trkpt lat="25.044003" lon="121.526413">
        <time>2026-09-19T05:41:11Z</time>
      </trkpt>
      <trkpt lat="25.043947" lon="121.52664">
        <time>2026-09-19T05:41:52Z</time>
      </trkpt>
      <trkpt lat="25.043929" lon="121.526715">
        <time>2026-09-19T05:42:06Z</time>
      </trkpt>
      <trkpt lat="25.043902" lon="121.526827">
        <time>2026-09-19T05:42:26Z</time>
      </trkpt>
      <trkpt lat="25.043869" lon="121.526952">
        <time>2026-09-19T05:42:49Z</time>
      </trkpt>
      <trkpt lat="25.043826" lon="121.5271">
        <time>2026-09-19T05:43:16Z</time>
      </trkpt>
      <trkpt lat="25.043777" lon="121.527272">
        <time>2026-09-19T05:43:48Z</time>
      </trkpt>
      <trkpt lat="25.043386" lon="121.528659">
        <time>2026-09-19T05:48:04Z</time>
      </trkpt>
      <trkpt lat="25.043303" lon="121.528966">
        <time>2026-09-19T05:49:00Z</time>
      </trkpt>
      <trkpt lat="25.043293" lon="121.529009">
        <time>2026-09-19T05:49:08Z</time>
      </trkpt>
      <trkpt lat="25.043202" lon="121.529359">
        <time>2026-09-19T05:50:12Z</time>
      </trkpt>
      <trkpt lat="25.04317" lon="121.529482">
        <time>2026-09-19T05:50:34Z</time>
      </trkpt>
      <trkpt lat="25.043141" lon="121.529593">
        <time>2026-09-19T05:50:55Z</time>
      </trkpt>
      <trkpt lat="25.043127" lon="121.529646">
        <time>2026-09-19T05:51:05Z</time>
      </trkpt>
      <trkpt lat="25.043102" lon="121.529745">
        <time>2026-09-19T05:51:23Z</time>
      </trkpt>
      <trkpt lat="25.04305" lon="121.529952">
        <time>2026-09-19T05:52:00Z</time>
      </trkpt>
      <trkpt lat="25.043024" lon="121.530049">
        <time>2026-09-19T05:52:18Z</time>
      </trkpt>
      <trkpt lat="25.042867" lon="121.530619">
        <time>2026-09-19T05:54:03Z</time>
      </trkpt>
      <trkpt lat="25.042837" lon="121.530723">
        <time>2026-09-19T05:54:22Z</time>
      </trkpt>
      <trkpt lat="25.0428" lon="121.530846">
        <time>2026-09-19T05:54:45Z</time>
      </trkpt>
      <trkpt lat="25.042711" lon="121.531167">
        <time>2026-09-19T05:55:44Z</time>
      </trkpt>
      <trkpt lat="25.042441" lon="121.532101">
        <time>2026-09-19T05:58:37Z</time>
      </trkpt>
      <trkpt lat="25.042376" lon="121.532346">
        <time>2026-09-19T05:59:22Z</time>
      </trkpt>
      <trkpt lat="25.042353" lon="121.532434">
        <time>2026-09-19T05:59:38Z</time>
      </trkpt>
      <trkpt lat="25.042322" lon="121.532548">
        <time>2026-09-19T05:59:59Z</time>
      </trkpt>
      <trkpt lat="25.042301" lon="121.532626">
        <time>2026-09-19T06:00:13Z</time>
      </trkpt>
      <trkpt lat="25.042265" lon="121.532773">
        <time>2026-09-19T06:00:40Z</time>
      </trkpt>
      <trkpt lat="25.042242" lon="121.532914">
        <time>2026-09-19T06:01:05Z</time>
      </trkpt>
      <trkpt lat="25.042206" lon="121.53314">
        <time>2026-09-19T06:01:45Z</time>
      </trkpt>
      <trkpt lat="25.042132" lon="121.533655">
        <time>2026-09-19T06:03:17Z</time>
      </trkpt>
      <trkpt lat="25.042052" lon="121.534206">
        <time>2026-09-19T06:04:55Z</time>
      </trkpt>
      <trkpt lat="25.041978" lon="121.534701">
        <time>2026-09-19T06:06:23Z</time>
      </trkpt>
      <trkpt lat="25.041893" lon="121.535325">
        <time>2026-09-19T06:08:15Z</time>
      </trkpt>
      <trkpt lat="25.041875" lon="121.535453">
        <time>2026-09-19T06:08:37Z</time>
      </trkpt>
      <trkpt lat="25.041835" lon="121.535723">
        <time>2026-09-19T06:09:25Z</time>
      </trkpt>
      <trkpt lat="25.041704" lon="121.536606">
        <time>2026-09-19T06:12:03Z</time>
      </trkpt>
      <trkpt lat="25.041667" lon="121.536854">
        <time>2026-09-19T06:12:47Z</time>
      </trkpt>
      <trkpt lat="25.041655" lon="121.536963">
        <time>2026-09-19T06:13:06Z</time>
      </trkpt>
      <trkpt lat="25.041628" lon="121.537309">
        <time>2026-09-19T06:14:08Z</time>
      </trkpt>
      <trkpt lat="25.041622" lon="121.537403">
        <time>2026-09-19T06:14:24Z</time>
      </trkpt>
      <trkpt lat="25.041621" lon="121.5375">
        <time>2026-09-19T06:14:41Z</time>
      </trkpt>
      <trkpt lat="25.041615" lon="121.538187">
        <time>2026-09-19T06:16:42Z</time>
      </trkpt>
      <trkpt lat="25.041603" lon="121.539327">
        <time>2026-09-19T06:20:03Z</time>
      </trkpt>
      <trkpt lat="25.0416" lon="121.539635">
        <time>2026-09-19T06:20:57Z</time>
      </trkpt>
      <trkpt lat="25.0416" lon="121.539707">
        <time>2026-09-19T06:21:10Z</time>
      </trkpt>
      <trkpt lat="25.0416" lon="121.539795">
        <time>2026-09-19T06:21:25Z</time>
      </trkpt>
      <trkpt lat="25.041596" lon="121.540125">
        <time>2026-09-19T06:22:23Z</time>
      </trkpt>
      <trkpt lat="25.041586" lon="121.541086">
        <time>2026-09-19T06:25:12Z</time>
      </trkpt>
      <trkpt lat="25.041584" lon="121.541322">
        <time>2026-09-19T06:25:54Z</time>
      </trkpt>
      <trkpt lat="25.041581" lon="121.541595">
        <time>2026-09-19T06:26:42Z</time>
      </trkpt>
      <trkpt lat="25.041581" lon="121.54164">
        <time>2026-09-19T06:26:50Z</time>
      </trkpt>
      <trkpt lat="25.041579" lon="121.541761">
        <time>2026-09-19T06:27:11Z</time>
      </trkpt>
      <trkpt lat="25.041571" lon="121.542475">
        <time>2026-09-19T06:29:17Z</time>
      </trkpt>
      <trkpt lat="25.04156" lon="121.543546">
        <time>2026-09-19T06:32:25Z</time>
      </trkpt>
      <trkpt lat="25.041558" lon="121.543714">
        <time>2026-09-19T06:32:55Z</time>
      </trkpt>
      <trkpt lat="25.041556" lon="121.543838">
        <time>2026-09-19T06:33:17Z</time>
      </trkpt>
      <trkpt lat="25.041553" lon="121.543971">
        <time>2026-09-19T06:33:40Z</time>
      </trkpt>
      <trkpt lat="25.041545" lon="121.54445">
        <time>2026-09-19T06:35:04Z</time>
      </trkpt>
      <trkpt lat="25.041541" lon="121.544668">
        <time>2026-09-19T06:35:43Z</time>
      </trkpt>
      <trkpt lat="25.041529" lon="121.545241">
        <time>2026-09-19T06:37:23Z</time>
      </trkpt>
      <trkpt lat="25.041524" lon="121.546035">
        <time>2026-09-19T06:39:43Z</time>
      </trkpt>
      <trkpt lat="25.041522" lon="121.546121">
        <time>2026-09-19T06:39:58Z</time>
      </trkpt>
      <trkpt lat="25.041517" lon="121.546255">
        <time>2026-09-19T06:40:22Z</time>
      </trkpt>
      <trkpt lat="25.041514" lon="121.546348">
        <time>2026-09-19T06:40:38Z</time>
      </trkpt>
      <trkpt lat="25.0415" lon="121.54714">
        <time>2026-09-19T06:42:58Z</time>
      </trkpt>
      <trkpt lat="25.041499" lon="121.547211">
        <time>2026-09-19T06:43:10Z</time>
      </trkpt>
      <trkpt lat="25.041497" lon="121.54728">
        <time>2026-09-19T06:43:22Z</time>
      </trkpt>
      <trkpt lat="25.041495" lon="121.547339">
        <time>2026-09-19T06:43:33Z</time>
      </trkpt>
      <trkpt lat="25.041488" lon="121.547595">
        <time>2026-09-19T06:44:18Z</time>
      </trkpt>
      <trkpt lat="25.041473" lon="121.548333">
        <time>2026-09-19T06:46:28Z</time>
      </trkpt>
      <trkpt lat="25.041472" lon="121.548374">
        <time>2026-09-19T06:46:35Z</time>
      </trkpt>
      <trkpt lat="25.04147" lon="121.548434">
        <time>2026-09-19T06:46:45Z</time>
      </trkpt>
      <trkpt lat="25.041469" lon="121.548489">
        <time>2026-09-19T06:46:55Z</time>
      </trkpt>
      <trkpt lat="25.041467" lon="121.548616">
        <time>2026-09-19T06:47:17Z</time>
      </trkpt>
      <trkpt lat="25.041458" lon="121.548876">
        <time>2026-09-19T06:48:03Z</time>
      </trkpt>
      <trkpt lat="25.041446" lon="121.549111">
        <time>2026-09-19T06:48:45Z</time>
      </trkpt>
      <trkpt lat="25.041437" lon="121.54923">
        <time>2026-09-19T06:49:06Z</time>
      </trkpt>
      <trkpt lat="25.041431" lon="121.549645">
        <time>2026-09-19T06:50:19Z</time>
      </trkpt>
      <trkpt lat="25.041405" lon="121.550702">
        <time>2026-09-19T06:53:25Z</time>
      </trkpt>
      <trkpt lat="25.04141" lon="121.550774">
        <time>2026-09-19T06:53:37Z</time>
      </trkpt>
      <trkpt lat="25.041391" lon="121.551813">
        <time>2026-09-19T06:56:40Z</time>
      </trkpt>
      <trkpt lat="25.041371" lon="121.552889">
        <time>2026-09-19T06:59:50Z</time>
      </trkpt>
      <trkpt lat="25.041369" lon="121.552977">
        <time>2026-09-19T07:00:05Z</time>
      </trkpt>
      <trkpt lat="25.041368" lon="121.553071">
        <time>2026-09-19T07:00:22Z</time>
      </trkpt>
      <trkpt lat="25.041349" lon="121.554086">
        <time>2026-09-19T07:03:20Z</time>
      </trkpt>
      <trkpt lat="25.041342" lon="121.554449">
        <time>2026-09-19T07:04:24Z</time>
      </trkpt>
      <trkpt lat="25.041341" lon="121.554501">
        <time>2026-09-19T07:04:33Z</time>
      </trkpt>
      <trkpt lat="25.04134" lon="121.554598">
        <time>2026-09-19T07:04:50Z</time>
      </trkpt>
      <trkpt lat="25.041336" lon="121.554787">
        <time>2026-09-19T07:05:24Z</time>
      </trkpt>
      <trkpt lat="25.04132" lon="121.555942">
        <time>2026-09-19T07:08:47Z</time>
      </trkpt>
      <trkpt lat="25.041312" lon="121.556117">
        <time>2026-09-19T07:09:18Z</time>
      </trkpt>
      <trkpt lat="25.041307" lon="121.556368">
        <time>2026-09-19T07:10:02Z</time>
      </trkpt>
      <trkpt lat="25.041303" lon="121.55657">
        <time>2026-09-19T07:10:38Z</time>
      </trkpt>
      <trkpt lat="25.0413" lon="121.556762">
        <time>2026-09-19T07:11:11Z</time>
      </trkpt>
      <trkpt lat="25.041286" lon="121.557502">
        <time>2026-09-19T07:13:22Z</time>
      </trkpt>
      <trkpt lat="25.041283" lon="121.557615">
        <time>2026-09-19T07:13:41Z</time>
      </trkpt>
      <trkpt lat="25.04128" lon="121.557738">
        <time>2026-09-19T07:14:03Z</time>
      </trkpt>
      <trkpt lat="25.041278" lon="121.557824">
        <time>2026-09-19T07:14:18Z</time>
      </trkpt>
      <trkpt lat="25.041222" lon="121.559381">
        <time>2026-09-19T07:18:52Z</time>
      </trkpt>
      <trkpt lat="25.041214" lon="121.559656">
        <time>2026-09-19T07:19:41Z</time>
      </trkpt>
      <trkpt lat="25.041174" lon="121.561001">
        <time>2026-09-19T07:23:38Z</time>
      </trkpt>
      <trkpt lat="25.041161" lon="121.561435">
        <time>2026-09-19T07:24:54Z</time>
      </trkpt>
      <trkpt lat="25.04116" lon="121.561583">
        <time>2026-09-19T07:25:20Z</time>
      </trkpt>
      <trkpt lat="25.041157" lon="121.561718">
        <time>2026-09-19T07:25:44Z</time>
      </trkpt>
      <trkpt lat="25.041139" lon="121.562581">
        <time>2026-09-19T07:28:16Z</time>
      </trkpt>
      <trkpt lat="25.041139" lon="121.562664">
        <time>2026-09-19T07:28:30Z</time>
      </trkpt>
      <trkpt lat="25.041136" lon="121.562736">
        <time>2026-09-19T07:28:43Z</time>
      </trkpt>
      <trkpt lat="25.041136" lon="121.562786">
        <time>2026-09-19T07:28:52Z</time>
      </trkpt>
      <trkpt lat="25.041119" lon="121.563706">
        <time>2026-09-19T07:31:34Z</time>
      </trkpt>
      <trkpt lat="25.041113" lon="121.564203">
        <time>2026-09-19T07:33:01Z</time>
      </trkpt>
      <trkpt lat="25.041113" lon="121.564336">
        <time>2026-09-19T07:33:25Z</time>
      </trkpt>
      <trkpt lat="25.041104" lon="121.564579">
        <time>2026-09-19T07:34:07Z</time>
      </trkpt>
      <trkpt lat="25.041106" lon="121.564744">
        <time>2026-09-19T07:34:36Z</time>
      </trkpt>
      <trkpt lat="25.041089" lon="121.565089">
        <time>2026-09-19T07:35:37Z</time>
      </trkpt>
      <trkpt lat="25.041058" lon="121.565922">
        <time>2026-09-19T07:38:04Z</time>
      </trkpt>
      <trkpt lat="25.041055" lon="121.565996">
        <time>2026-09-19T07:38:17Z</time>
      </trkpt>
      <trkpt lat="25.04105" lon="121.566141">
        <time>2026-09-19T07:38:43Z</time>
      </trkpt>
      <trkpt lat="25.041046" lon="121.566256">
        <time>2026-09-19T07:39:03Z</time>
      </trkpt>
      <trkpt lat="25.041021" lon="121.567107">
        <time>2026-09-19T07:41:33Z</time>
      </trkpt>
      <trkpt lat="25.040989" lon="121.568323">
        <time>2026-09-19T07:45:07Z</time>
      </trkpt>
      <trkpt lat="25.040986" lon="121.568396">
        <time>2026-09-19T07:45:20Z</time>
      </trkpt>
      <trkpt lat="25.040907" lon="121.568393">
        <time>2026-09-19T07:45:35Z</time>
      </trkpt>
      <trkpt lat="25.040489" lon="121.568385">
        <time>2026-09-19T07:46:56Z</time>
      </trkpt>
      <trkpt lat="25.040419" lon="121.568384">
        <time>2026-09-19T07:47:10Z</time>
      </trkpt>
      <trkpt lat="25.04023" lon="121.56838">
        <time>2026-09-19T07:47:46Z</time>
      </trkpt>
      <trkpt lat="25.04004" lon="121.568377">
        <time>2026-09-19T07:48:23Z</time>
      </trkpt>
      <trkpt lat="25.039849" lon="121.568373">
        <time>2026-09-19T07:49:00Z</time>
      </trkpt>
      <trkpt lat="25.039206" lon="121.568361">
        <time>2026-09-19T07:51:05Z</time>
      </trkpt>
      <trkpt lat="25.039078" lon="121.568358">
        <time>2026-09-19T07:51:30Z</time>
      </trkpt>
      <trkpt lat="25.038974" lon="121.568358">
        <time>2026-09-19T07:51:50Z</time>
      </trkpt>
      <trkpt lat="25.038477" lon="121.568348">
        <time>2026-09-19T07:53:27Z</time>
      </trkpt>
      <trkpt lat="25.037495" lon="121.568334">
        <time>2026-09-19T07:56:38Z</time>
      </trkpt>
      <trkpt lat="25.03743" lon="121.568333">
        <time>2026-09-19T07:56:50Z</time>
      </trkpt>
      <trkpt lat="25.036048" lon="121.568315">
        <time>2026-09-19T08:01:19Z</time>
      </trkpt>
      <trkpt lat="25.03593" lon="121.568312">
        <time>2026-09-19T08:01:42Z</time>
      </trkpt>
      <trkpt lat="25.035865" lon="121.568313">
        <time>2026-09-19T08:01:54Z</time>
      </trkpt>
      <trkpt lat="25.035831" lon="121.56831">
        <time>2026-09-19T08:02:01Z</time>
      </trkpt>
      <trkpt lat="25.035829" lon="121.568367">
        <time>2026-09-19T08:02:11Z</time>
      </trkpt>
      <trkpt lat="25.035828" lon="121.568446">
        <time>2026-09-19T08:02:25Z</time>
      </trkpt>
      <trkpt lat="25.035876" lon="121.568449">
        <time>2026-09-19T08:02:34Z</time>
      </trkpt>
      <trkpt lat="25.035927" lon="121.56845">
        <time>2026-09-19T08:02:44Z</time>
      </trkpt>
      <trkpt lat="25.036207" lon="121.568456">
        <time>2026-09-19T08:03:38Z</time>
      </trkpt>
      <trkpt lat="25.036586" lon="121.568465">
        <time>2026-09-19T08:04:52Z</time>
      </trkpt>
      <trkpt lat="25.03735" lon="121.56848">
        <time>2026-09-19T08:07:20Z</time>
      </trkpt>
      <trkpt lat="25.037426" lon="121.568483">
        <time>2026-09-19T08:07:35Z</time>
      </trkpt>
      <trkpt lat="25.03897" lon="121.56852">
        <time>2026-09-19T08:12:35Z</time>
      </trkpt>
      <trkpt lat="25.039075" lon="121.568522">
        <time>2026-09-19T08:12:56Z</time>
      </trkpt>
      <trkpt lat="25.039078" lon="121.568358">
        <time>2026-09-19T08:13:24Z</time>
      </trkpt>
      <trkpt lat="25.038974" lon="121.568358">
        <time>2026-09-19T08:13:45Z</time>
      </trkpt>
      <trkpt lat="25.038477" lon="121.568348">
        <time>2026-09-19T08:15:21Z</time>
      </trkpt>
      <trkpt lat="25.037495" lon="121.568334">
        <time>2026-09-19T08:18:32Z</time>
      </trkpt>
      <trkpt lat="25.03743" lon="121.568333">
        <time>2026-09-19T08:18:45Z</time>
      </trkpt>
      <trkpt lat="25.036048" lon="121.568315">
        <time>2026-09-19T08:23:13Z</time>
      </trkpt>
      <trkpt lat="25.03593" lon="121.568312">
        <time>2026-09-19T08:23:36Z</time>
      </trkpt>
      <trkpt lat="25.035865" lon="121.568313">
        <time>2026-09-19T08:23:49Z</time>
      </trkpt>
      <trkpt lat="25.035831" lon="121.56831">
        <time>2026-09-19T08:23:55Z</time>
      </trkpt>
      <trkpt lat="25.035792" lon="121.568309">
        <time>2026-09-19T08:24:03Z</time>
      </trkpt>
      <trkpt lat="25.035726" lon="121.568306">
        <time>2026-09-19T08:24:16Z</time>
      </trkpt>
      <trkpt lat="25.034881" lon="121.568306">
        <time>2026-09-19T08:27:00Z</time>
      </trkpt>
      <trkpt lat="25.034733" lon="121.568309">
        <time>2026-09-19T08:27:28Z</time>
      </trkpt>
      <trkpt lat="25.033956" lon="121.568291">
        <time>2026-09-19T08:29:59Z</time>
      </trkpt>
      <trkpt lat="25.033386" lon="121.568243">
        <time>2026-09-19T08:31:50Z</time>
      </trkpt>
      <trkpt lat="25.033017" lon="121.568272">
        <time>2026-09-19T08:33:02Z</time>
      </trkpt>
      <trkpt lat="25.032897" lon="121.568266">
        <time>2026-09-19T08:33:26Z</time>
      </trkpt>
      <trkpt lat="25.032764" lon="121.568264">
        <time>2026-09-19T08:33:51Z</time>
      </trkpt>
      <trkpt lat="25.03263" lon="121.568267">
        <time>2026-09-19T08:34:17Z</time>
      </trkpt>
      <trkpt lat="25.032357" lon="121.568234">
        <time>2026-09-19T08:35:11Z</time>
      </trkpt>
      <trkpt lat="25.031909" lon="121.568241">
        <time>2026-09-19T08:36:38Z</time>
      </trkpt>
      <trkpt lat="25.031817" lon="121.568238">
        <time>2026-09-19T08:36:56Z</time>
      </trkpt>
      <trkpt lat="25.030421" lon="121.568263">
        <time>2026-09-19T08:41:27Z</time>
      </trkpt>
      <trkpt lat="25.028578" lon="121.568295">
        <time>2026-09-19T08:47:25Z</time>
      </trkpt>
      <trkpt lat="25.02851" lon="121.56829">
        <time>2026-09-19T08:47:38Z</time>
      </trkpt>
      <trkpt lat="25.028455" lon="121.568297">
        <time>2026-09-19T08:47:49Z</time>
      </trkpt>
      <trkpt lat="25.027265" lon="121.568309">
        <time>2026-09-19T08:51:40Z</time>
      </trkpt>
      <trkpt lat="25.026752" lon="121.568316">
        <time>2026-09-19T08:53:20Z</time>
      </trkpt>
      <trkpt lat="25.026717" lon="121.568317">
        <time>2026-09-19T08:53:26Z</time>
      </trkpt>
      <trkpt lat="25.026684" lon="121.568317">
        <time>2026-09-19T08:53:33Z</time>
      </trkpt>
      <trkpt lat="25.026649" lon="121.568392">
        <time>2026-09-19T08:53:48Z</time>
      </trkpt>
      <trkpt lat="25.026638" lon="121.568415">
        <time>2026-09-19T08:53:52Z</time>
      </trkpt>
      <trkpt lat="25.026556" lon="121.56845">
        <time>2026-09-19T08:54:09Z</time>
      </trkpt>
      <trkpt lat="25.026367" lon="121.568531">
        <time>2026-09-19T08:54:49Z</time>
      </trkpt>
      <trkpt lat="25.025804" lon="121.568853">
        <time>2026-09-19T08:56:52Z</time>
      </trkpt>
      <trkpt lat="25.025476" lon="121.56908">
        <time>2026-09-19T08:58:07Z</time>
      </trkpt>
      <trkpt lat="25.025465" lon="121.568998">
        <time>2026-09-19T08:58:22Z</time>
      </trkpt>
      <trkpt lat="25.025301" lon="121.568623">
        <time>2026-09-19T08:59:35Z</time>
      </trkpt>
      <trkpt lat="25.025242" lon="121.568499">
        <time>2026-09-19T09:00:00Z</time>
      </trkpt>
    </trkseg>
  </trk>

</gpx>